0 COSMOS 1823 DEB
1 18729U 87020G   13281.93109075  .00000225  00000-0  21799-2 0  7024
2 18729 073.8177 001.2715 0129809 258.7328 218.8170 12.23283005152441
0 COSMOS 1823 DEB
1 18729U 87020G   13284.20022745  .00000177  00000-0  17422-2 0  7030
2 18729 073.8176 358.3658 0129927 255.5961 131.6288 12.23284552152722
0 COSMOS 1823 DEB
1 18729U 87020G   13286.25137932  .00000212  00000-0  20652-2 0  7042
2 18729 073.8175 355.7395 0130018 252.7627 164.4914 12.23285320152972
0 COSMOS 1823 DEB
1 18729U 87020G   13288.54280216  .00000284  00000-0  27114-2 0  7050
2 18729 073.8170 352.8057 0130113 249.6024 175.4644 12.23285724153254
0 COSMOS 1823 DEB
1 18729U 87020G   13290.60849631  .00000187  00000-0  18327-2 0  7061
2 18729 073.8165 350.1604 0130161 246.7466 272.3782 12.23287904153508
0 COSMOS 1823 DEB
1 18729U 87020G   13293.11323848  .00000196  00000-0  19142-2 0  7074
2 18729 073.8163 346.9525 0130207 243.2899 142.7872 12.23288998153812
0 COSMOS 1823 DEB
1 18729U 87020G   13295.15855583  .00000220  00000-0  21310-2 0  7085
2 18729 073.8162 344.3332 0130240 240.4728 149.9828 12.23289632154060
